ION SCV-004             
1 50993U 22002K   26068.68892644  .00006538  00000+0  23198-3 0  9998
2 50993  97.2961 128.2294 0007216   1.6783 358.4480 15.29369331230088
STARLINK-35675          
1 67188U 25303AB  26068.05938489  .00026824  00000+0  98100-3 0  9993
2 67188  42.9996 314.7172 0001603 272.1324  87.9344 15.27571478 12631
